STARLINK-6087           
1 56801U 23078AL  26202.00002315 -.00047108  00000+0 -39644-2 0  9992
2 56801  70.0022 348.2124 0002741 267.3455 145.9833 14.98353643  5782
STARLINK-6029           
1 56803U 23078AN  26201.89443826  .00000303  00000+0  33172-4 0  9992
2 56803  70.0004   8.5723 0002962 267.2849  92.7971 14.98333107172630
STARLINK-6069           
1 56804U 23078AP  26202.13202643 -.00000876  00000+0 -65647-4 0  9990
2 56804  70.0009 347.9298 0002747 266.7141  93.3704 14.98326117173830
STARLINK-6064           
1 56805U 23078AQ  26201.80239276  .00000098  00000+0  16039-4 0  9991
2 56805  70.0006 348.7845 0002645 267.9798  92.1058 14.98339825173113
STARLINK-6072           
1 56806U 23078AR  26201.76459774  .00000063  00000+0  13078-4 0  9996
2 56806  70.0009 328.7710 0003141 266.1518  93.9282 14.98331070173571
STARLINK-6073           
1 56807U 23078AS  26202.11531844  .00002590  00000+0  22476-3 0  9994
2 56807  70.0029 347.8704 0003160 272.3517  87.7280 14.98338440173159
STARLINK-6042           
1 56808U 23078AT  26201.38665469 -.00000103  00000+0 -85607-6 0  9992
2 56808  69.9999 299.9636 0003351 268.0888  91.9887 14.98330064174299
STARLINK-6040           
1 56809U 23078AU  26202.20735255  .00000217  00000+0  25994-4 0  9991
2 56809  70.0009   7.6591 0002900 259.9149 100.1683 14.98339321172680
STARLINK-6031           
1 56810U 23078AV  26201.89024878  .00000293  00000+0  32315-4 0  9998
2 56810  70.0004   8.5570 0003120 263.5492  96.5312 14.98336748172633
STARLINK-6065           
1 56812U 23078AX  26201.65651781  .00000581  00000+0  56467-4 0  9997
2 56812  70.0001 349.0847 0003065 269.8340  90.2468 14.98330484173096
STARLINK-6056           
1 56813U 23078AY  26202.20333888  .00000114  00000+0  17362-4 0  9998
2 56813  70.0007   7.6448 0002881 265.1475  94.9356 14.98330762172680
STARLINK-6059           
1 56814U 23078AZ  26202.21152303  .00000494  00000+0  49150-4 0  9992
2 56814  70.0006   7.6725 0002793 264.7298  95.3543 14.98331683172684
STARLINK-6067           
1 56816U 23078BB  26201.84410358  .00000071  00000+0  13743-4 0  9999
2 56816  70.0012 348.5292 0002916 266.9548  93.1278 14.98333097173120
STARLINK-6028           
1 56818U 23078BD  26202.20318011  .00003719  00000+0  31924-3 0  9997
2 56818  70.0026   7.6431 0002825 267.9554  92.1282 14.98335443173370
STARLINK-30119          
1 56823U 23079A   26202.06539060  .00000280  00000+0  19699-4 0  9993
2 56823  43.0013  74.0464 0001270 263.7960  96.2746 15.27575058173713
STARLINK-30120          
1 56824U 23079B   26202.01413309 -.00001407  00000+0 -41621-4 0  9990
2 56824  43.0005  74.5300 0001050 272.6340  87.4392 15.27586801173599
STARLINK-30084          
1 56825U 23079C   26202.01913308 -.00000712  00000+0 -16363-4 0  9998
2 56825  43.0022  73.7145 0000913 274.8902  85.1846 15.27578164173280
STARLINK-30114          
1 56826U 23079D   26201.99225995  .00000267  00000+0  19221-4 0  9992
2 56826  43.0015  74.1719 0001164 271.6616  88.4102 15.27581375173583
STARLINK-30151          
1 56827U 23079E   26202.04868167  .00001569  00000+0  66524-4 0  9998
2 56827  43.0031  73.9152 0001245 265.7140  94.3569 15.27584595173283
STARLINK-30152          
1 56828U 23079F   26201.98715209  .00000745  00000+0  36572-4 0  9994
2 56828  43.0030  74.3244 0001108 268.5204  91.5521 15.27582033173271
STARLINK-30128          
1 56832U 23079K   26201.30946240  .00000272  00000+0  19422-4 0  9996
2 56832  43.0055  52.2711 0001586 276.5177  83.5494 15.27580386167064
STARLINK-30131          
1 56833U 23079L   26201.01228461  .00012463  00000+0  49984-3 0  9993
2 56833  43.0043  58.7847 0004526 242.8394 117.1995 15.24930458173363
STARLINK-30069          
1 56834U 23079M   26201.98379158  .00000404  00000+0  24194-4 0  9999
2 56834  43.0014  70.8824 0001350 261.6090  98.4609 15.27576916173312
STARLINK-30144          
1 56835U 23079N   26201.99225376  .00030162  00000+0  66615-3 0  9990
2 56835  42.9919  62.2093 0016769 245.3074 114.6037 15.43152479173418
STARLINK-30142          
1 56836U 23079P   26201.92996761  .00000099  00000+0  13108-4 0  9993
2 56836  43.0023  71.3443 0001004 265.7095  94.3642 15.27582336173307
STARLINK-30133          
1 56837U 23079Q   26202.01784729  .00002230  00000+0  90592-4 0  9995
2 56837  43.0042  73.6854 0001267 262.7343  97.3365 15.27565707173289
STARLINK-30123          
1 56838U 23079R   26201.73459521  .00000608  00000+0  31625-4 0  9992
2 56838  43.0018   2.5745 0001118 267.6398  92.4326 15.27578950174099
STARLINK-30076          
1 56839U 23079S   26201.98200906  .00000901  00000+0  42265-4 0  9999
2 56839  43.0037  74.2673 0001188 271.3000  88.7715 15.27583513173276
STARLINK-30073          
1 56840U 23079T   26202.25003472 -.00011469  00000+0 -40773-3 0  9995
2 56840  43.0020 258.1019 0001509 274.1584 312.4719 15.27593763  5859
STARLINK-30078          
1 56841U 23079U   26201.91603953  .00000286  00000+0  19927-4 0  9999
2 56841  43.0038  26.9712 0001377 264.6339  95.4356 15.27578282173822
