OBJECT_NAME,OBJECT_ID,EPOCH,MEAN_MOTION,ECCENTRICITY,INCLINATION,RA_OF_ASC_NODE,ARG_OF_PERICENTER,MEAN_ANOMALY,EPHEMERIS_TYPE,CLASSIFICATION_TYPE,NORAD_CAT_ID,ELEMENT_SET_NO,REV_AT_EPOCH,BSTAR,MEAN_MOTION_DOT,MEAN_MOTION_DDOT
STARLINK-6087,2023-078AL,2026-07-21T00:00:02.000160,14.98353643,.00027412,70.0022,348.2124,267.3455,145.9833,0,U,56801,999,578,-.39644448E-2,-.47108E-3,0
STARLINK-6029,2023-078AN,2026-07-20T21:27:59.465664,14.98333107,.00029622,70.0004,8.5723,267.2849,92.7971,0,U,56803,999,17263,.33171961E-4,.303E-5,0
STARLINK-6069,2023-078AP,2026-07-21T03:10:07.083552,14.98326117,.00027477,70.0009,347.9298,266.7141,93.3704,0,U,56804,999,17383,-.65647122E-4,-.876E-5,0
STARLINK-6064,2023-078AQ,2026-07-20T19:15:26.734464,14.98339825,.0002645,70.0006,348.7845,267.9798,92.1058,0,U,56805,999,17311,.16039485E-4,.98E-6,0
STARLINK-6072,2023-078AR,2026-07-20T18:21:01.244736,14.98331070,.00031415,70.0009,328.7710,266.1518,93.9282,0,U,56806,999,17357,.13078479E-4,.63E-6,0
STARLINK-6073,2023-078AS,2026-07-21T02:46:03.513216,14.98338440,.00031609,70.0029,347.8704,272.3517,87.7280,0,U,56807,999,17315,.22476364E-3,.259E-4,0
STARLINK-6042,2023-078AT,2026-07-20T09:16:46.965216,14.98330064,.0003351,69.9999,299.9636,268.0888,91.9887,0,U,56808,999,17429,-.85607E-6,-.103E-5,0
STARLINK-6040,2023-078AU,2026-07-21T04:58:35.260320,14.98339321,.00029004,70.0009,7.6591,259.9149,100.1683,0,U,56809,999,17268,.25994015E-4,.217E-5,0
STARLINK-6031,2023-078AV,2026-07-20T21:21:57.494592,14.98336748,.00031207,70.0004,8.5570,263.5492,96.5312,0,U,56810,999,17263,.32314734E-4,.293E-5,0
STARLINK-6065,2023-078AX,2026-07-20T15:45:23.138784,14.98330484,.00030659,70.0001,349.0847,269.8340,90.2468,0,U,56812,999,17309,.56467388E-4,.581E-5,0
STARLINK-6056,2023-078AY,2026-07-21T04:52:48.479232,14.98330762,.00028819,70.0007,7.6448,265.1475,94.9356,0,U,56813,999,17268,.17362052E-4,.114E-5,0
STARLINK-6059,2023-078AZ,2026-07-21T05:04:35.589792,14.98331683,.00027933,70.0006,7.6725,264.7298,95.3543,0,U,56814,999,17268,.49149791E-4,.494E-5,0
STARLINK-6067,2023-078BB,2026-07-20T20:15:30.549312,14.98333097,.00029162,70.0012,348.5292,266.9548,93.1278,0,U,56816,999,17312,.13743149E-4,.71E-6,0
STARLINK-6028,2023-078BD,2026-07-21T04:52:34.761504,14.98335443,.0002825,70.0026,7.6431,267.9554,92.1282,0,U,56818,999,17337,.31923749E-3,.3719E-4,0
STARLINK-30119,2023-079A,2026-07-21T01:34:09.747840,15.27575058,.00012705,43.0013,74.0464,263.7960,96.2746,0,U,56823,999,17371,.19698568E-4,.28E-5,0
STARLINK-30120,2023-079B,2026-07-21T00:20:21.098976,15.27586801,.00010507,43.0005,74.5300,272.6340,87.4392,0,U,56824,999,17359,-.4162061E-4,-.1407E-4,0
STARLINK-30084,2023-079C,2026-07-21T00:27:33.098112,15.27578164,.00009135,43.0022,73.7145,274.8902,85.1846,0,U,56825,999,17328,-.163632E-4,-.712E-5,0
STARLINK-30114,2023-079D,2026-07-20T23:48:51.259680,15.27581375,.00011649,43.0015,74.1719,271.6616,88.4102,0,U,56826,999,17358,.19221464E-4,.267E-5,0
STARLINK-30151,2023-079E,2026-07-21T01:10:06.096288,15.27584595,.00012454,43.0031,73.9152,265.7140,94.3569,0,U,56827,999,17328,.66524175E-4,.1569E-4,0
STARLINK-30152,2023-079F,2026-07-20T23:41:29.940576,15.27582033,.00011086,43.0030,74.3244,268.5204,91.5521,0,U,56828,999,17327,.3657217E-4,.745E-5,0
STARLINK-30128,2023-079K,2026-07-20T07:25:37.551360,15.27580386,.0001586,43.0055,52.2711,276.5177,83.5494,0,U,56832,999,16706,.19421684E-4,.272E-5,0
STARLINK-30131,2023-079L,2026-07-20T00:17:41.390304,15.24930458,.00045263,43.0043,58.7847,242.8394,117.1995,0,U,56833,999,17336,.49984039E-3,.12463E-3,0
STARLINK-30069,2023-079M,2026-07-20T23:36:39.592512,15.27576916,.00013508,43.0014,70.8824,261.6090,98.4609,0,U,56834,999,17331,.24194012E-4,.404E-5,0
STARLINK-30144,2023-079N,2026-07-20T23:48:50.724864,15.43152479,.00167695,42.9919,62.2093,245.3074,114.6037,0,U,56835,999,17341,.66615145E-3,.30162E-3,0
STARLINK-30142,2023-079P,2026-07-20T22:19:09.201504,15.27582336,.00010044,43.0023,71.3443,265.7095,94.3642,0,U,56836,999,17330,.13108476E-4,.99E-6,0
STARLINK-30133,2023-079Q,2026-07-21T00:25:42.005856,15.27565707,.00012677,43.0042,73.6854,262.7343,97.3365,0,U,56837,999,17328,.90592464E-4,.223E-4,0
STARLINK-30123,2023-079R,2026-07-20T17:37:49.026144,15.27578950,.00011189,43.0018,2.5745,267.6398,92.4326,0,U,56838,999,17409,.31624621E-4,.608E-5,0
STARLINK-30076,2023-079S,2026-07-20T23:34:05.582784,15.27583513,.00011882,43.0037,74.2673,271.3000,88.7715,0,U,56839,999,17327,.42264935E-4,.901E-5,0
STARLINK-30073,2023-079T,2026-07-21T06:00:02.999808,15.27593763,.00015099,43.0020,258.1019,274.1584,312.4719,0,U,56840,999,585,-.40772642E-3,-.11469E-3,0
STARLINK-30078,2023-079U,2026-07-20T21:59:05.815392,15.27578282,.00013777,43.0038,26.9712,264.6339,95.4356,0,U,56841,999,17382,.19927057E-4,.286E-5,0
